[{"OBJECT_NAME":"STARLINK-3130","OBJECT_ID":"2021-104AF","EPOCH":"2025-09-27T06:44:48.528672","MEAN_MOTION":15.08830244,"ECCENTRICITY":0.00014013,"INCLINATION":53.2158,"RA_OF_ASC_NODE":222.6898,"ARG_OF_PERICENTER":92.0177,"MEAN_ANOMALY":268.0975,"EPHEMERIS_TYPE":0,"CLASSIFICATION_TYPE":"U","NORAD_CAT_ID":49437,"ELEMENT_SET_NO":999,"REV_AT_EPOCH":21424,"BSTAR":-4.1031428e-5,"MEAN_MOTION_DOT":-9.41e-6,"MEAN_MOTION_DDOT":0},{"OBJECT_NAME":"STARLINK-3044","OBJECT_ID":"2021-104AG","EPOCH":"2025-09-27T06:30:16.191936","MEAN_MOTION":15.08838138,"ECCENTRICITY":0.00015048,"INCLINATION":53.2162,"RA_OF_ASC_NODE":222.6684,"ARG_OF_PERICENTER":108.5162,"MEAN_ANOMALY":251.5994,"EPHEMERIS_TYPE":0,"CLASSIFICATION_TYPE":"U","NORAD_CAT_ID":49438,"ELEMENT_SET_NO":999,"REV_AT_EPOCH":21424,"BSTAR":0.00017688733,"MEAN_MOTION_DOT":2.528e-5,"MEAN_MOTION_DDOT":0},{"OBJECT_NAME":"STARLINK-3105","OBJECT_ID":"2021-104AJ","EPOCH":"2025-09-27T03:23:25.885248","MEAN_MOTION":15.0884152,"ECCENTRICITY":0.00013985,"INCLINATION":53.2171,"RA_OF_ASC_NODE":223.3157,"ARG_OF_PERICENTER":93.8771,"MEAN_ANOMALY":266.2381,"EPHEMERIS_TYPE":0,"CLASSIFICATION_TYPE":"U","NORAD_CAT_ID":49440,"ELEMENT_SET_NO":999,"REV_AT_EPOCH":21422,"BSTAR":1.944781e-5,"MEAN_MOTION_DOT":2.2e-7,"MEAN_MOTION_DDOT":0},{"OBJECT_NAME":"STARLINK-3128","OBJECT_ID":"2021-104AK","EPOCH":"2025-09-27T06:07:41.433888","MEAN_MOTION":15.08857626,"ECCENTRICITY":0.0001124,"INCLINATION":53.2175,"RA_OF_ASC_NODE":222.8054,"ARG_OF_PERICENTER":78.9318,"MEAN_ANOMALY":281.18,"EPHEMERIS_TYPE":0,"CLASSIFICATION_TYPE":"U","NORAD_CAT_ID":49441,"ELEMENT_SET_NO":999,"REV_AT_EPOCH":21424,"BSTAR":5.8490629e-5,"MEAN_MOTION_DOT":6.44e-6,"MEAN_MOTION_DDOT":0},{"OBJECT_NAME":"STARLINK-3098","OBJECT_ID":"2021-104AL","EPOCH":"2025-09-27T06:28:55.419168","MEAN_MOTION":15.08848932,"ECCENTRICITY":0.00012752,"INCLINATION":53.2144,"RA_OF_ASC_NODE":222.7401,"ARG_OF_PERICENTER":83.4377,"MEAN_ANOMALY":276.676,"EPHEMERIS_TYPE":0,"CLASSIFICATION_TYPE":"U","NORAD_CAT_ID":49442,"ELEMENT_SET_NO":999,"REV_AT_EPOCH":21424,"BSTAR":0.00035780043,"MEAN_MOTION_DOT":5.412e-5,"MEAN_MOTION_DDOT":0},{"OBJECT_NAME":"STARLINK-3136","OBJECT_ID":"2021-104AM","EPOCH":"2025-09-27T04:27:01.069056","MEAN_MOTION":15.08845405,"ECCENTRICITY":0.00013551,"INCLINATION":53.2179,"RA_OF_ASC_NODE":223.1203,"ARG_OF_PERICENTER":83.818,"MEAN_ANOMALY":276.2966,"EPHEMERIS_TYPE":0,"CLASSIFICATION_TYPE":"U","NORAD_CAT_ID":49443,"ELEMENT_SET_NO":999,"REV_AT_EPOCH":21423,"BSTAR":5.4816915e-5,"MEAN_MOTION_DOT":5.85e-6,"MEAN_MOTION_DDOT":0},{"OBJECT_NAME":"STARLINK-3126","OBJECT_ID":"2021-104AN","EPOCH":"2025-09-27T06:24:59.154048","MEAN_MOTION":15.08841435,"ECCENTRICITY":0.00016805,"INCLINATION":53.2173,"RA_OF_ASC_NODE":222.7617,"ARG_OF_PERICENTER":88.4659,"MEAN_ANOMALY":271.6525,"EPHEMERIS_TYPE":0,"CLASSIFICATION_TYPE":"U","NORAD_CAT_ID":49444,"ELEMENT_SET_NO":999,"REV_AT_EPOCH":21424,"BSTAR":5.4779836e-5,"MEAN_MOTION_DOT":5.84e-6,"MEAN_MOTION_DDOT":0},{"OBJECT_NAME":"STARLINK-3122","OBJECT_ID":"2021-104AP","EPOCH":"2025-09-27T02:51:45.441216","MEAN_MOTION":15.08838157,"ECCENTRICITY":0.00014341,"INCLINATION":53.2158,"RA_OF_ASC_NODE":233.8115,"ARG_OF_PERICENTER":98.7978,"MEAN_ANOMALY":261.3176,"EPHEMERIS_TYPE":0,"CLASSIFICATION_TYPE":"U","NORAD_CAT_ID":49445,"ELEMENT_SET_NO":999,"REV_AT_EPOCH":21407,"BSTAR":2.9712114e-5,"MEAN_MOTION_DOT":1.85e-6,"MEAN_MOTION_DDOT":0},{"OBJECT_NAME":"STARLINK-3099","OBJECT_ID":"2021-104AQ","EPOCH":"2025-09-27T04:42:55.472832","MEAN_MOTION":15.08836521,"ECCENTRICITY":0.00014739,"INCLINATION":53.2167,"RA_OF_ASC_NODE":223.0719,"ARG_OF_PERICENTER":88.8778,"MEAN_ANOMALY":271.2383,"EPHEMERIS_TYPE":0,"CLASSIFICATION_TYPE":"U","NORAD_CAT_ID":49446,"ELEMENT_SET_NO":999,"REV_AT_EPOCH":21423,"BSTAR":3.041108e-5,"MEAN_MOTION_DOT":1.96e-6,"MEAN_MOTION_DDOT":0},{"OBJECT_NAME":"STARLINK-3115","OBJECT_ID":"2021-104AR","EPOCH":"2025-09-27T04:57:30.346272","MEAN_MOTION":15.08815834,"ECCENTRICITY":0.0001596,"INCLINATION":53.2165,"RA_OF_ASC_NODE":233.0227,"ARG_OF_PERICENTER":82.5455,"MEAN_ANOMALY":277.5719,"EPHEMERIS_TYPE":0,"CLASSIFICATION_TYPE":"U","NORAD_CAT_ID":49447,"ELEMENT_SET_NO":999,"REV_AT_EPOCH":21409,"BSTAR":0.00061971419,"MEAN_MOTION_DOT":9.582e-5,"MEAN_MOTION_DDOT":0},{"OBJECT_NAME":"STARLINK-3137","OBJECT_ID":"2021-104AT","EPOCH":"2025-09-27T03:07:34.996224","MEAN_MOTION":15.08838392,"ECCENTRICITY":0.00013871,"INCLINATION":53.216,"RA_OF_ASC_NODE":233.3139,"ARG_OF_PERICENTER":92.4036,"MEAN_ANOMALY":267.7115,"EPHEMERIS_TYPE":0,"CLASSIFICATION_TYPE":"U","NORAD_CAT_ID":49449,"ELEMENT_SET_NO":999,"REV_AT_EPOCH":21408,"BSTAR":-2.5845174e-5,"MEAN_MOTION_DOT":-6.99e-6,"MEAN_MOTION_DDOT":0},{"OBJECT_NAME":"STARLINK-3127","OBJECT_ID":"2021-104AU","EPOCH":"2025-09-27T06:43:29.804448","MEAN_MOTION":15.08824321,"ECCENTRICITY":0.00013976,"INCLINATION":53.2179,"RA_OF_ASC_NODE":232.7333,"ARG_OF_PERICENTER":90.8053,"MEAN_ANOMALY":269.31,"EPHEMERIS_TYPE":0,"CLASSIFICATION_TYPE":"U","NORAD_CAT_ID":49450,"ELEMENT_SET_NO":999,"REV_AT_EPOCH":21436,"BSTAR":-6.2562723e-5,"MEAN_MOTION_DOT":-1.283e-5,"MEAN_MOTION_DDOT":0},{"OBJECT_NAME":"STARLINK-3125","OBJECT_ID":"2021-104AV","EPOCH":"2025-09-27T03:11:30.983136","MEAN_MOTION":15.08836901,"ECCENTRICITY":0.00015264,"INCLINATION":53.2176,"RA_OF_ASC_NODE":233.3542,"ARG_OF_PERICENTER":93.7455,"MEAN_ANOMALY":266.3712,"EPHEMERIS_TYPE":0,"CLASSIFICATION_TYPE":"U","NORAD_CAT_ID":49451,"ELEMENT_SET_NO":999,"REV_AT_EPOCH":21408,"BSTAR":2.313817e-5,"MEAN_MOTION_DOT":8.0e-7,"MEAN_MOTION_DDOT":0},{"OBJECT_NAME":"STARLINK-3150","OBJECT_ID":"2021-104AW","EPOCH":"2025-09-27T04:32:22.807968","MEAN_MOTION":15.0883693,"ECCENTRICITY":0.00013778,"INCLINATION":53.2164,"RA_OF_ASC_NODE":233.1409,"ARG_OF_PERICENTER":91.8536,"MEAN_ANOMALY":268.2614,"EPHEMERIS_TYPE":0,"CLASSIFICATION_TYPE":"U","NORAD_CAT_ID":49452,"ELEMENT_SET_NO":999,"REV_AT_EPOCH":21409,"BSTAR":1.6641556e-5,"MEAN_MOTION_DOT":-2.3e-7,"MEAN_MOTION_DDOT":0},{"OBJECT_NAME":"STARLINK-3129","OBJECT_ID":"2021-104AX","EPOCH":"2025-09-27T03:12:54.177696","MEAN_MOTION":15.08837323,"ECCENTRICITY":0.00012602,"INCLINATION":53.2167,"RA_OF_ASC_NODE":233.4377,"ARG_OF_PERICENTER":89.5386,"MEAN_ANOMALY":270.5751,"EPHEMERIS_TYPE":0,"CLASSIFICATION_TYPE":"U","NORAD_CAT_ID":49453,"ELEMENT_SET_NO":999,"REV_AT_EPOCH":21408,"BSTAR":2.731787e-6,"MEAN_MOTION_DOT":-2.44e-6,"MEAN_MOTION_DDOT":0},{"OBJECT_NAME":"STARLINK-3160","OBJECT_ID":"2021-104AY","EPOCH":"2025-09-27T04:41:35.602944","MEAN_MOTION":15.08838476,"ECCENTRICITY":0.00014028,"INCLINATION":53.2163,"RA_OF_ASC_NODE":233.0725,"ARG_OF_PERICENTER":92.1182,"MEAN_ANOMALY":267.9971,"EPHEMERIS_TYPE":0,"CLASSIFICATION_TYPE":"U","NORAD_CAT_ID":49454,"ELEMENT_SET_NO":999,"REV_AT_EPOCH":21409,"BSTAR":6.41813e-5,"MEAN_MOTION_DOT":7.34e-6,"MEAN_MOTION_DDOT":0},{"OBJECT_NAME":"STARLINK-3145","OBJECT_ID":"2021-104AZ","EPOCH":"2025-09-27T04:20:24.837792","MEAN_MOTION":15.08836273,"ECCENTRICITY":0.0001896,"INCLINATION":53.215,"RA_OF_ASC_NODE":233.1404,"ARG_OF_PERICENTER":95.4714,"MEAN_ANOMALY":264.6494,"EPHEMERIS_TYPE":0,"CLASSIFICATION_TYPE":"U","NORAD_CAT_ID":49455,"ELEMENT_SET_NO":999,"REV_AT_EPOCH":21409,"BSTAR":-0.00016913106,"MEAN_MOTION_DOT":-2.979e-5,"MEAN_MOTION_DDOT":0},{"OBJECT_NAME":"STARLINK-3124","OBJECT_ID":"2021-104BA","EPOCH":"2025-09-27T04:37:41.166912","MEAN_MOTION":15.08834566,"ECCENTRICITY":0.00014535,"INCLINATION":53.2164,"RA_OF_ASC_NODE":233.1317,"ARG_OF_PERICENTER":93.4546,"MEAN_ANOMALY":266.6612,"EPHEMERIS_TYPE":0,"CLASSIFICATION_TYPE":"U","NORAD_CAT_ID":49456,"ELEMENT_SET_NO":999,"REV_AT_EPOCH":21409,"BSTAR":2.5364373e-5,"MEAN_MOTION_DOT":1.16e-6,"MEAN_MOTION_DDOT":0},{"OBJECT_NAME":"STARLINK-3132","OBJECT_ID":"2021-104BB","EPOCH":"2025-09-27T04:16:28.664256","MEAN_MOTION":15.08837059,"ECCENTRICITY":0.00016146,"INCLINATION":53.2169,"RA_OF_ASC_NODE":233.1627,"ARG_OF_PERICENTER":97.5307,"MEAN_ANOMALY":262.5869,"EPHEMERIS_TYPE":0,"CLASSIFICATION_TYPE":"U","NORAD_CAT_ID":49457,"ELEMENT_SET_NO":999,"REV_AT_EPOCH":21409,"BSTAR":-7.98778e-6,"MEAN_MOTION_DOT":-4.15e-6,"MEAN_MOTION_DDOT":0},{"OBJECT_NAME":"STARLINK-3156","OBJECT_ID":"2021-104BC","EPOCH":"2025-09-27T02:50:18.493440","MEAN_MOTION":15.08839793,"ECCENTRICITY":0.0001491,"INCLINATION":53.2173,"RA_OF_ASC_NODE":233.4201,"ARG_OF_PERICENTER":101.1981,"MEAN_ANOMALY":258.9179,"EPHEMERIS_TYPE":0,"CLASSIFICATION_TYPE":"U","NORAD_CAT_ID":49458,"ELEMENT_SET_NO":999,"REV_AT_EPOCH":21408,"BSTAR":6.8413199e-5,"MEAN_MOTION_DOT":8.01e-6,"MEAN_MOTION_DDOT":0},{"OBJECT_NAME":"STARLINK-3141","OBJECT_ID":"2021-104BD","EPOCH":"2025-09-27T04:09:47.772576","MEAN_MOTION":15.08842507,"ECCENTRICITY":0.00018756,"INCLINATION":53.2166,"RA_OF_ASC_NODE":233.1721,"ARG_OF_PERICENTER":89.051,"MEAN_ANOMALY":271.0697,"EPHEMERIS_TYPE":0,"CLASSIFICATION_TYPE":"U","NORAD_CAT_ID":49459,"ELEMENT_SET_NO":999,"REV_AT_EPOCH":21409,"BSTAR":4.5221835e-5,"MEAN_MOTION_DOT":4.32e-6,"MEAN_MOTION_DDOT":0},{"OBJECT_NAME":"STARLINK-3140","OBJECT_ID":"2021-104BE","EPOCH":"2025-09-27T04:04:29.811072","MEAN_MOTION":15.08835303,"ECCENTRICITY":0.00013776,"INCLINATION":53.216,"RA_OF_ASC_NODE":233.1877,"ARG_OF_PERICENTER":95.4538,"MEAN_ANOMALY":264.6612,"EPHEMERIS_TYPE":0,"CLASSIFICATION_TYPE":"U","NORAD_CAT_ID":49460,"ELEMENT_SET_NO":999,"REV_AT_EPOCH":21408,"BSTAR":5.67842e-7,"MEAN_MOTION_DOT":-2.79e-6,"MEAN_MOTION_DDOT":0},{"OBJECT_NAME":"STARLINK-3219","OBJECT_ID":"2021-115A","EPOCH":"2025-09-26T10:39:15.837984","MEAN_MOTION":15.08841471,"ECCENTRICITY":0.00014406,"INCLINATION":53.2185,"RA_OF_ASC_NODE":166.6687,"ARG_OF_PERICENTER":82.501,"MEAN_ANOMALY":277.6146,"EPHEMERIS_TYPE":0,"CLASSIFICATION_TYPE":"U","NORAD_CAT_ID":49724,"ELEMENT_SET_NO":999,"REV_AT_EPOCH":21073,"BSTAR":0.00010951464,"MEAN_MOTION_DOT":1.455e-5,"MEAN_MOTION_DDOT":0}]
